[{"OBJECT_NAME":"ONEWEB-0056","OBJECT_ID":"2020-008AE","EPOCH":"2026-06-19T00:56:52.027584","MEAN_MOTION":13.10456221,"ECCENTRICITY":0.0001929,"INCLINATION":87.8814,"RA_OF_ASC_NODE":35.8938,"ARG_OF_PERICENTER":87.806,"MEAN_ANOMALY":272.3289,"EPHEMERIS_TYPE":0,"CLASSIFICATION_TYPE":"U","NORAD_CAT_ID":45159,"ELEMENT_SET_NO":999,"REV_AT_EPOCH":30842,"BSTAR":0.00017091,"MEAN_MOTION_DOT":7.2e-07,"MEAN_MOTION_DDOT":0.0},{"OBJECT_NAME":"ONEWEB-0057","OBJECT_ID":"2020-008AF","EPOCH":"2026-06-19T01:21:22.864896","MEAN_MOTION":13.10387075,"ECCENTRICITY":0.0002038,"INCLINATION":87.8835,"RA_OF_ASC_NODE":35.9009,"ARG_OF_PERICENTER":69.2361,"MEAN_ANOMALY":290.8984,"EPHEMERIS_TYPE":0,"CLASSIFICATION_TYPE":"U","NORAD_CAT_ID":45160,"ELEMENT_SET_NO":999,"REV_AT_EPOCH":30859,"BSTAR":0.0030756,"MEAN_MOTION_DOT":1.087e-05,"MEAN_MOTION_DDOT":0.0},{"OBJECT_NAME":"ONEWEB-0058","OBJECT_ID":"2020-008AG","EPOCH":"2026-06-19T04:42:10.632960","MEAN_MOTION":13.10374459,"ECCENTRICITY":0.0001581,"INCLINATION":87.8826,"RA_OF_ASC_NODE":35.8791,"ARG_OF_PERICENTER":85.4552,"MEAN_ANOMALY":274.6756,"EPHEMERIS_TYPE":0,"CLASSIFICATION_TYPE":"U","NORAD_CAT_ID":45161,"ELEMENT_SET_NO":999,"REV_AT_EPOCH":30868,"BSTAR":-0.0017575,"MEAN_MOTION_DOT":-6.01e-06,"MEAN_MOTION_DDOT":0.0},{"OBJECT_NAME":"ONEWEB-0059","OBJECT_ID":"2020-008AH","EPOCH":"2026-06-19T04:37:12.163296","MEAN_MOTION":13.10432364,"ECCENTRICITY":0.0002028,"INCLINATION":87.8827,"RA_OF_ASC_NODE":35.8785,"ARG_OF_PERICENTER":76.518,"MEAN_ANOMALY":283.6173,"EPHEMERIS_TYPE":0,"CLASSIFICATION_TYPE":"U","NORAD_CAT_ID":45162,"ELEMENT_SET_NO":999,"REV_AT_EPOCH":30858,"BSTAR":0.013198,"MEAN_MOTION_DOT":4.626e-05,"MEAN_MOTION_DDOT":0.0},{"OBJECT_NAME":"ONEWEB-0062","OBJECT_ID":"2020-008AJ","EPOCH":"2026-06-19T01:30:35.568288","MEAN_MOTION":13.10367755,"ECCENTRICITY":0.0001505,"INCLINATION":87.8839,"RA_OF_ASC_NODE":35.8921,"ARG_OF_PERICENTER":94.1794,"MEAN_ANOMALY":265.9505,"EPHEMERIS_TYPE":0,"CLASSIFICATION_TYPE":"U","NORAD_CAT_ID":45163,"ELEMENT_SET_NO":999,"REV_AT_EPOCH":30843,"BSTAR":-0.0021868,"MEAN_MOTION_DOT":-7.51e-06,"MEAN_MOTION_DDOT":0.0},{"OBJECT_NAME":"ONEWEB-0065","OBJECT_ID":"2020-008AK","EPOCH":"2026-06-19T04:08:46.146912","MEAN_MOTION":13.10221335,"ECCENTRICITY":0.0002042,"INCLINATION":87.8829,"RA_OF_ASC_NODE":35.8781,"ARG_OF_PERICENTER":78.9142,"MEAN_ANOMALY":281.2215,"EPHEMERIS_TYPE":0,"CLASSIFICATION_TYPE":"U","NORAD_CAT_ID":45164,"ELEMENT_SET_NO":999,"REV_AT_EPOCH":30814,"BSTAR":-0.0023259,"MEAN_MOTION_DOT":-7.97e-06,"MEAN_MOTION_DDOT":0.0},{"OBJECT_NAME":"ONEWEB-0066","OBJECT_ID":"2020-020A","EPOCH":"2026-06-19T01:17:55.119552","MEAN_MOTION":13.11413626,"ECCENTRICITY":0.0001667,"INCLINATION":87.8883,"RA_OF_ASC_NODE":20.6996,"ARG_OF_PERICENTER":81.8775,"MEAN_ANOMALY":278.2542,"EPHEMERIS_TYPE":0,"CLASSIFICATION_TYPE":"U","NORAD_CAT_ID":45424,"ELEMENT_SET_NO":999,"REV_AT_EPOCH":30292,"BSTAR":0.00013382,"MEAN_MOTION_DOT":6e-07,"MEAN_MOTION_DDOT":0.0},{"OBJECT_NAME":"ONEWEB-0067","OBJECT_ID":"2020-020B","EPOCH":"2026-06-19T02:12:27.475488","MEAN_MOTION":13.114259,"ECCENTRICITY":0.0001947,"INCLINATION":87.8904,"RA_OF_ASC_NODE":20.6143,"ARG_OF_PERICENTER":82.2267,"MEAN_ANOMALY":277.9082,"EPHEMERIS_TYPE":0,"CLASSIFICATION_TYPE":"U","NORAD_CAT_ID":45425,"ELEMENT_SET_NO":999,"REV_AT_EPOCH":30298,"BSTAR":1.2866e-05,"MEAN_MOTION_DOT":1.7e-07,"MEAN_MOTION_DDOT":0.0},{"OBJECT_NAME":"ONEWEB-0080","OBJECT_ID":"2020-020C","EPOCH":"2026-06-19T02:11:49.818912","MEAN_MOTION":13.11419695,"ECCENTRICITY":0.0001596,"INCLINATION":87.8893,"RA_OF_ASC_NODE":20.6888,"ARG_OF_PERICENTER":94.9093,"MEAN_ANOMALY":265.2217,"EPHEMERIS_TYPE":0,"CLASSIFICATION_TYPE":"U","NORAD_CAT_ID":45426,"ELEMENT_SET_NO":999,"REV_AT_EPOCH":30295,"BSTAR":-0.00021543999999999998,"MEAN_MOTION_DOT":-6.4e-07,"MEAN_MOTION_DDOT":0.0},{"OBJECT_NAME":"ONEWEB-0090","OBJECT_ID":"2020-020D","EPOCH":"2026-06-19T06:33:05.085792","MEAN_MOTION":13.11414812,"ECCENTRICITY":0.0001815,"INCLINATION":87.8893,"RA_OF_ASC_NODE":20.657,"ARG_OF_PERICENTER":88.3464,"MEAN_ANOMALY":271.7872,"EPHEMERIS_TYPE":0,"CLASSIFICATION_TYPE":"U","NORAD_CAT_ID":45427,"ELEMENT_SET_NO":999,"REV_AT_EPOCH":30294,"BSTAR":0.001221,"MEAN_MOTION_DOT":4.45e-06,"MEAN_MOTION_DDOT":0.0},{"OBJECT_NAME":"ONEWEB-0061","OBJECT_ID":"2020-020E","EPOCH":"2026-06-19T01:49:26.632416","MEAN_MOTION":13.11416468,"ECCENTRICITY":0.0001769,"INCLINATION":87.8893,"RA_OF_ASC_NODE":20.6806,"ARG_OF_PERICENTER":85.6705,"MEAN_ANOMALY":274.4625,"EPHEMERIS_TYPE":0,"CLASSIFICATION_TYPE":"U","NORAD_CAT_ID":45428,"ELEMENT_SET_NO":999,"REV_AT_EPOCH":30287,"BSTAR":-0.0014013,"MEAN_MOTION_DOT":-4.84e-06,"MEAN_MOTION_DDOT":0.0},{"OBJECT_NAME":"ONEWEB-0081","OBJECT_ID":"2020-020F","EPOCH":"2026-06-19T01:22:47.918784","MEAN_MOTION":13.11414081,"ECCENTRICITY":0.0001789,"INCLINATION":87.8887,"RA_OF_ASC_NODE":20.6947,"ARG_OF_PERICENTER":79.405,"MEAN_ANOMALY":280.7279,"EPHEMERIS_TYPE":0,"CLASSIFICATION_TYPE":"U","NORAD_CAT_ID":45429,"ELEMENT_SET_NO":999,"REV_AT_EPOCH":30298,"BSTAR":-0.00027489999999999996,"MEAN_MOTION_DOT":-8.5e-07,"MEAN_MOTION_DDOT":0.0},{"OBJECT_NAME":"ONEWEB-0069","OBJECT_ID":"2020-020G","EPOCH":"2026-06-19T01:25:26.032512","MEAN_MOTION":13.11413763,"ECCENTRICITY":0.0001803,"INCLINATION":87.889,"RA_OF_ASC_NODE":20.6972,"ARG_OF_PERICENTER":83.2891,"MEAN_ANOMALY":276.8443,"EPHEMERIS_TYPE":0,"CLASSIFICATION_TYPE":"U","NORAD_CAT_ID":45430,"ELEMENT_SET_NO":999,"REV_AT_EPOCH":30291,"BSTAR":-0.0006433799999999999,"MEAN_MOTION_DOT":-2.15e-06,"MEAN_MOTION_DDOT":0.0},{"OBJECT_NAME":"ONEWEB-0031","OBJECT_ID":"2020-020H","EPOCH":"2026-06-19T02:16:30.808128","MEAN_MOTION":13.11420054,"ECCENTRICITY":0.000172,"INCLINATION":87.8884,"RA_OF_ASC_NODE":20.6952,"ARG_OF_PERICENTER":91.1165,"MEAN_ANOMALY":269.016,"EPHEMERIS_TYPE":0,"CLASSIFICATION_TYPE":"U","NORAD_CAT_ID":45431,"ELEMENT_SET_NO":999,"REV_AT_EPOCH":30290,"BSTAR":0.00014796,"MEAN_MOTION_DOT":6.5e-07,"MEAN_MOTION_DDOT":0.0},{"OBJECT_NAME":"ONEWEB-0027","OBJECT_ID":"2020-020J","EPOCH":"2026-06-19T05:39:08.531424","MEAN_MOTION":13.17651603,"ECCENTRICITY":0.0002017,"INCLINATION":87.9142,"RA_OF_ASC_NODE":5.4575,"ARG_OF_PERICENTER":103.3261,"MEAN_ANOMALY":256.8096,"EPHEMERIS_TYPE":0,"CLASSIFICATION_TYPE":"U","NORAD_CAT_ID":45432,"ELEMENT_SET_NO":999,"REV_AT_EPOCH":30662,"BSTAR":-9.5416e-06,"MEAN_MOTION_DOT":9e-08,"MEAN_MOTION_DDOT":0.0},{"OBJECT_NAME":"ONEWEB-0064","OBJECT_ID":"2020-020K","EPOCH":"2026-06-19T02:14:04.823232","MEAN_MOTION":13.11418622,"ECCENTRICITY":0.0001798,"INCLINATION":87.8885,"RA_OF_ASC_NODE":20.6875,"ARG_OF_PERICENTER":91.6919,"MEAN_ANOMALY":268.4415,"EPHEMERIS_TYPE":0,"CLASSIFICATION_TYPE":"U","NORAD_CAT_ID":45433,"ELEMENT_SET_NO":999,"REV_AT_EPOCH":30293,"BSTAR":0.00013225999999999998,"MEAN_MOTION_DOT":6e-07,"MEAN_MOTION_DDOT":0.0}]